<?xml version="1.0" encoding="UTF-8"?>
<kml xmlns="http://www.opengis.net/kml/2.2">
<Document>
  <name>内蒙草原 5 天经典环线 B 方案（夜行承德 + 达达线+热阿线+乌兰布统）</name>
  <description>D0 晚 20:00 北京出发 → 承德过夜 · D1 从容游塞罕坝+乌兰布统+公主湖 · D2-D5 与 A 方案一致</description>
  <Folder>
    <name>D0 夜行 · 北京 → 承德</name>
    <description>20:00 出发 · 188km/2.3h · 22:20 入住</description>
    <Placemark>
      <name>D0 行程连线</name>
      <Style><LineStyle><color>ff3539E5</color><width>3</width></LineStyle></Style>
      <LineString><tessellate>1</tessellate><coordinates>116.548094,40.084943,0 116.83,40.38,0 117.94,40.98,0</coordinates></LineString>
    </Placemark>
    <Placemark>
      <name>1. 枫泉花园</name>
      <description><![CDATA[20:00 出发 · 京承高速<br/><br/>标签: start<br/>坐标(GCJ-02): 116.548094, 40.084943<br/>高德导航: <a href="https://uri.amap.com/navigation?to=116.548094,40.084943,%E6%9E%AB%E6%B3%89%E8%8A%B1%E5%9B%AD&mode=car&src=trip">点这里导航</a>]]></description>
      <Style><IconStyle><color>ff00C853</color><scale>1.0</scale><Icon><href>http://maps.google.com/mapfiles/kml/pushpin/ylw-pushpin.png</href></Icon></IconStyle></Style>
      <Point><coordinates>116.548094,40.084943,0</coordinates></Point>
    </Placemark>
    <Placemark>
      <name>2. 密云服务区</name>
      <description><![CDATA[21:00 · 第一次休整<br/><br/>标签: service<br/>坐标(GCJ-02): 116.83, 40.38<br/>高德导航: <a href="https://uri.amap.com/navigation?to=116.83,40.38,%E5%AF%86%E4%BA%91%E6%9C%8D%E5%8A%A1%E5%8C%BA&mode=car&src=trip">点这里导航</a>]]></description>
      <Style><IconStyle><color>ff1976D2</color><scale>1.0</scale><Icon><href>http://maps.google.com/mapfiles/kml/pushpin/ylw-pushpin.png</href></Icon></IconStyle></Style>
      <Point><coordinates>116.83,40.38,0</coordinates></Point>
    </Placemark>
    <Placemark>
      <name>3. 承德·避暑山庄附近酒店</name>
      <description><![CDATA[22:20 入住 · 188km/2.3h<br/><br/>标签: hotel<br/>坐标(GCJ-02): 117.94, 40.98<br/>高德导航: <a href="https://uri.amap.com/navigation?to=117.94,40.98,%E6%89%BF%E5%BE%B7%C2%B7%E9%81%BF%E6%9A%91%E5%B1%B1%E5%BA%84%E9%99%84%E8%BF%91%E9%85%92%E5%BA%97&mode=car&src=trip">点这里导航</a>]]></description>
      <Style><IconStyle><color>ff7B1FA2</color><scale>1.0</scale><Icon><href>http://maps.google.com/mapfiles/kml/pushpin/ylw-pushpin.png</href></Icon></IconStyle></Style>
      <Point><coordinates>117.94,40.98,0</coordinates></Point>
    </Placemark>
  </Folder>
  <Folder>
    <name>D1 承德 → 塞罕坝 → 乌兰布统</name>
    <description>约 260km · 从容游 + 公主湖 + 日落</description>
    <Placemark>
      <name>D1 行程连线</name>
      <Style><LineStyle><color>ffE5881E</color><width>3</width></LineStyle></Style>
      <LineString><tessellate>1</tessellate><coordinates>117.94,40.98,0 117.284168,42.248837,0 117.162602,42.439959,0 117.24,42.35,0 117.24,42.35,0 117.55,42.51,0 117.5544,42.6186,0 117.55,42.49,0 117.55,42.52,0</coordinates></LineString>
    </Placemark>
    <Placemark>
      <name>4. 承德·避暑山庄附近酒店</name>
      <description><![CDATA[7:30 出发 · 走承围线 G111<br/><br/>标签: start<br/>坐标(GCJ-02): 117.94, 40.98<br/>高德导航: <a href="https://uri.amap.com/navigation?to=117.94,40.98,%E6%89%BF%E5%BE%B7%C2%B7%E9%81%BF%E6%9A%91%E5%B1%B1%E5%BA%84%E9%99%84%E8%BF%91%E9%85%92%E5%BA%97&mode=car&src=trip">点这里导航</a>]]></description>
      <Style><IconStyle><color>ff00C853</color><scale>1.0</scale><Icon><href>http://maps.google.com/mapfiles/kml/pushpin/ylw-pushpin.png</href></Icon></IconStyle></Style>
      <Point><coordinates>117.94,40.98,0</coordinates></Point>
    </Placemark>
    <Placemark>
      <name>5. 塞罕坝机械林场</name>
      <description><![CDATA[10:30 · 穿林海而过(130km/2.5h)<br/><br/>标签: attract<br/>坐标(GCJ-02): 117.284168, 42.248837<br/>高德导航: <a href="https://uri.amap.com/navigation?to=117.284168,42.248837,%E5%A1%9E%E7%BD%95%E5%9D%9D%E6%9C%BA%E6%A2%B0%E6%9E%97%E5%9C%BA&mode=car&src=trip">点这里导航</a>]]></description>
      <Style><IconStyle><color>ffFF6F00</color><scale>1.0</scale><Icon><href>http://maps.google.com/mapfiles/kml/pushpin/ylw-pushpin.png</href></Icon></IconStyle></Style>
      <Point><coordinates>117.284168,42.248837,0</coordinates></Point>
    </Placemark>
    <Placemark>
      <name>6. 七星湖</name>
      <description><![CDATA[11:00 · 木栈道+晨雾+落叶松 · 免费<br/><br/>标签: attract<br/>坐标(GCJ-02): 117.162602, 42.439959<br/>高德导航: <a href="https://uri.amap.com/navigation?to=117.162602,42.439959,%E4%B8%83%E6%98%9F%E6%B9%96&mode=car&src=trip">点这里导航</a>]]></description>
      <Style><IconStyle><color>ffFF6F00</color><scale>1.0</scale><Icon><href>http://maps.google.com/mapfiles/kml/pushpin/ylw-pushpin.png</href></Icon></IconStyle></Style>
      <Point><coordinates>117.162602,42.439959,0</coordinates></Point>
    </Placemark>
    <Placemark>
      <name>7. 御道口午餐</name>
      <description><![CDATA[12:00 · 草原午餐 · 比承德市区体验好<br/><br/>标签: food<br/>坐标(GCJ-02): 117.24, 42.35<br/>高德导航: <a href="https://uri.amap.com/navigation?to=117.24,42.35,%E5%BE%A1%E9%81%93%E5%8F%A3%E5%8D%88%E9%A4%90&mode=car&src=trip">点这里导航</a>]]></description>
      <Style><IconStyle><color>ffFFB300</color><scale>1.0</scale><Icon><href>http://maps.google.com/mapfiles/kml/pushpin/ylw-pushpin.png</href></Icon></IconStyle></Style>
      <Point><coordinates>117.24,42.35,0</coordinates></Point>
    </Placemark>
    <Placemark>
      <name>8. 御道口·月亮湖</name>
      <description><![CDATA[12:40 · 月牙形草原湖<br/><br/>标签: attract<br/>坐标(GCJ-02): 117.24, 42.35<br/>高德导航: <a href="https://uri.amap.com/navigation?to=117.24,42.35,%E5%BE%A1%E9%81%93%E5%8F%A3%C2%B7%E6%9C%88%E4%BA%AE%E6%B9%96&mode=car&src=trip">点这里导航</a>]]></description>
      <Style><IconStyle><color>ffFF6F00</color><scale>1.0</scale><Icon><href>http://maps.google.com/mapfiles/kml/pushpin/ylw-pushpin.png</href></Icon></IconStyle></Style>
      <Point><coordinates>117.24,42.35,0</coordinates></Point>
    </Placemark>
    <Placemark>
      <name>9. 红山宾馆</name>
      <description><![CDATA[13:40 入住 · 老牌位置中心 · 红山军马场<br/><br/>标签: hotel<br/>坐标(GCJ-02): 117.55, 42.51<br/>高德导航: <a href="https://uri.amap.com/navigation?to=117.55,42.51,%E7%BA%A2%E5%B1%B1%E5%AE%BE%E9%A6%86&mode=car&src=trip">点这里导航</a>]]></description>
      <Style><IconStyle><color>ff7B1FA2</color><scale>1.0</scale><Icon><href>http://maps.google.com/mapfiles/kml/pushpin/ylw-pushpin.png</href></Icon></IconStyle></Style>
      <Point><coordinates>117.55,42.51,0</coordinates></Point>
    </Placemark>
    <Placemark>
      <name>10. 公主湖</name>
      <description><![CDATA[15:00 · 蓝齐格格传说 · 欧式草原湖泊(原D2提前)<br/><br/>标签: attract<br/>坐标(GCJ-02): 117.5544, 42.6186<br/>高德导航: <a href="https://uri.amap.com/navigation?to=117.5544,42.6186,%E5%85%AC%E4%B8%BB%E6%B9%96&mode=car&src=trip">点这里导航</a>]]></description>
      <Style><IconStyle><color>ffFF6F00</color><scale>1.0</scale><Icon><href>http://maps.google.com/mapfiles/kml/pushpin/ylw-pushpin.png</href></Icon></IconStyle></Style>
      <Point><coordinates>117.5544,42.6186,0</coordinates></Point>
    </Placemark>
    <Placemark>
      <name>11. 影视基地</name>
      <description><![CDATA[18:30 · 欧式草原+暖光日落 · 今日重头戏<br/><br/>标签: attract<br/>坐标(GCJ-02): 117.55, 42.49<br/>高德导航: <a href="https://uri.amap.com/navigation?to=117.55,42.49,%E5%BD%B1%E8%A7%86%E5%9F%BA%E5%9C%B0&mode=car&src=trip">点这里导航</a>]]></description>
      <Style><IconStyle><color>ffFF6F00</color><scale>1.0</scale><Icon><href>http://maps.google.com/mapfiles/kml/pushpin/ylw-pushpin.png</href></Icon></IconStyle></Style>
      <Point><coordinates>117.55,42.49,0</coordinates></Point>
    </Placemark>
    <Placemark>
      <name>12. 老舅老蒙肉饼</name>
      <description><![CDATA[20:00 晚餐 · 当地特色<br/><br/>标签: food<br/>坐标(GCJ-02): 117.55, 42.52<br/>高德导航: <a href="https://uri.amap.com/navigation?to=117.55,42.52,%E8%80%81%E8%88%85%E8%80%81%E8%92%99%E8%82%89%E9%A5%BC&mode=car&src=trip">点这里导航</a>]]></description>
      <Style><IconStyle><color>ffFFB300</color><scale>1.0</scale><Icon><href>http://maps.google.com/mapfiles/kml/pushpin/ylw-pushpin.png</href></Icon></IconStyle></Style>
      <Point><coordinates>117.55,42.52,0</coordinates></Point>
    </Placemark>
  </Folder>
  <Folder>
    <name>D2 乌兰布统核心区(去公主湖)</name>
    <description>约 80km · 盘龙峡谷/五彩山/东沟/将军泡子日落</description>
    <Placemark>
      <name>D2 行程连线</name>
      <Style><LineStyle><color>ff47A043</color><width>3</width></LineStyle></Style>
      <LineString><tessellate>1</tessellate><coordinates>117.55,42.51,0 117.538,42.628,0 117.56,42.57,0 117.55,42.55,0 117.58,42.53,0 117.6,42.55,0 117.534,42.6331,0 117.55,42.51,0</coordinates></LineString>
    </Placemark>
    <Placemark>
      <name>13. 红山军马场日出</name>
      <description><![CDATA[5:30 · 私家牧场晨雾+草浪 · 免费<br/><br/>标签: attract<br/>坐标(GCJ-02): 117.55, 42.51<br/>高德导航: <a href="https://uri.amap.com/navigation?to=117.55,42.51,%E7%BA%A2%E5%B1%B1%E5%86%9B%E9%A9%AC%E5%9C%BA%E6%97%A5%E5%87%BA&mode=car&src=trip">点这里导航</a>]]></description>
      <Style><IconStyle><color>ffFF6F00</color><scale>1.0</scale><Icon><href>http://maps.google.com/mapfiles/kml/pushpin/ylw-pushpin.png</href></Icon></IconStyle></Style>
      <Point><coordinates>117.55,42.51,0</coordinates></Point>
    </Placemark>
    <Placemark>
      <name>14. 盘龙峡谷</name>
      <description><![CDATA[9:00 · 公主湖与将军泡子之间 · 野花+怪石(提前)<br/><br/>标签: attract<br/>坐标(GCJ-02): 117.538, 42.628<br/>高德导航: <a href="https://uri.amap.com/navigation?to=117.538,42.628,%E7%9B%98%E9%BE%99%E5%B3%A1%E8%B0%B7&mode=car&src=trip">点这里导航</a>]]></description>
      <Style><IconStyle><color>ffFF6F00</color><scale>1.0</scale><Icon><href>http://maps.google.com/mapfiles/kml/pushpin/ylw-pushpin.png</href></Icon></IconStyle></Style>
      <Point><coordinates>117.538,42.628,0</coordinates></Point>
    </Placemark>
    <Placemark>
      <name>15. 五彩山</name>
      <description><![CDATA[10:00 · 色彩斑斓山丘 · 摄影点(提前)<br/><br/>标签: attract<br/>坐标(GCJ-02): 117.56, 42.57<br/>高德导航: <a href="https://uri.amap.com/navigation?to=117.56,42.57,%E4%BA%94%E5%BD%A9%E5%B1%B1&mode=car&src=trip">点这里导航</a>]]></description>
      <Style><IconStyle><color>ffFF6F00</color><scale>1.0</scale><Icon><href>http://maps.google.com/mapfiles/kml/pushpin/ylw-pushpin.png</href></Icon></IconStyle></Style>
      <Point><coordinates>117.56,42.57,0</coordinates></Point>
    </Placemark>
    <Placemark>
      <name>16. 蒙古牧户家</name>
      <description><![CDATA[12:00 午餐 · 手把肉 80-120/人<br/><br/>标签: food<br/>坐标(GCJ-02): 117.55, 42.55<br/>高德导航: <a href="https://uri.amap.com/navigation?to=117.55,42.55,%E8%92%99%E5%8F%A4%E7%89%A7%E6%88%B7%E5%AE%B6&mode=car&src=trip">点这里导航</a>]]></description>
      <Style><IconStyle><color>ffFFB300</color><scale>1.0</scale><Icon><href>http://maps.google.com/mapfiles/kml/pushpin/ylw-pushpin.png</href></Icon></IconStyle></Style>
      <Point><coordinates>117.55,42.55,0</coordinates></Point>
    </Placemark>
    <Placemark>
      <name>17. 金莲花湿地</name>
      <description><![CDATA[15:30 · 7-8 月限定 · 漫山金莲<br/><br/>标签: attract<br/>坐标(GCJ-02): 117.58, 42.53<br/>高德导航: <a href="https://uri.amap.com/navigation?to=117.58,42.53,%E9%87%91%E8%8E%B2%E8%8A%B1%E6%B9%BF%E5%9C%B0&mode=car&src=trip">点这里导航</a>]]></description>
      <Style><IconStyle><color>ffFF6F00</color><scale>1.0</scale><Icon><href>http://maps.google.com/mapfiles/kml/pushpin/ylw-pushpin.png</href></Icon></IconStyle></Style>
      <Point><coordinates>117.58,42.53,0</coordinates></Point>
    </Placemark>
    <Placemark>
      <name>18. 东沟</name>
      <description><![CDATA[17:00 · 比西沟人少 70% · 野花密<br/><br/>标签: attract<br/>坐标(GCJ-02): 117.6, 42.55<br/>高德导航: <a href="https://uri.amap.com/navigation?to=117.6,42.55,%E4%B8%9C%E6%B2%9F&mode=car&src=trip">点这里导航</a>]]></description>
      <Style><IconStyle><color>ffFF6F00</color><scale>1.0</scale><Icon><href>http://maps.google.com/mapfiles/kml/pushpin/ylw-pushpin.png</href></Icon></IconStyle></Style>
      <Point><coordinates>117.6,42.55,0</coordinates></Point>
    </Placemark>
    <Placemark>
      <name>19. 将军泡子</name>
      <description><![CDATA[17:30 日落 · 今日重头戏<br/><br/>标签: attract<br/>坐标(GCJ-02): 117.534, 42.6331<br/>高德导航: <a href="https://uri.amap.com/navigation?to=117.534,42.6331,%E5%B0%86%E5%86%9B%E6%B3%A1%E5%AD%90&mode=car&src=trip">点这里导航</a>]]></description>
      <Style><IconStyle><color>ffFF6F00</color><scale>1.0</scale><Icon><href>http://maps.google.com/mapfiles/kml/pushpin/ylw-pushpin.png</href></Icon></IconStyle></Style>
      <Point><coordinates>117.534,42.6331,0</coordinates></Point>
    </Placemark>
    <Placemark>
      <name>20. 铜锅涮肉</name>
      <description><![CDATA[19:30 晚餐<br/><br/>标签: food<br/>坐标(GCJ-02): 117.55, 42.51<br/>高德导航: <a href="https://uri.amap.com/navigation?to=117.55,42.51,%E9%93%9C%E9%94%85%E6%B6%AE%E8%82%89&mode=car&src=trip">点这里导航</a>]]></description>
      <Style><IconStyle><color>ffFFB300</color><scale>1.0</scale><Icon><href>http://maps.google.com/mapfiles/kml/pushpin/ylw-pushpin.png</href></Icon></IconStyle></Style>
      <Point><coordinates>117.55,42.51,0</coordinates></Point>
    </Placemark>
  </Folder>
  <Folder>
    <name>D3 达达线 + 热阿线环线</name>
    <description>约 280km · 8h · 中国最美草原公路</description>
    <Placemark>
      <name>D3 行程连线</name>
      <Style><LineStyle><color>ff008CFB</color><width>3</width></LineStyle></Style>
      <LineString><tessellate>1</tessellate><coordinates>116.93,43.42,0 116.98,43.46,0 117.0,43.5,0 117.547,43.35,0 117.68,43.14,0 117.71,43.09,0 117.79,43.15,0 117.55,43.26,0 117.55,43.26,0</coordinates></LineString>
    </Placemark>
    <Placemark>
      <name>21. 贡格尔收费站</name>
      <description><![CDATA[9:30 · 出口下来 · 正式上达达线<br/><br/>标签: stop<br/>坐标(GCJ-02): 116.93, 43.42<br/>高德导航: <a href="https://uri.amap.com/navigation?to=116.93,43.42,%E8%B4%A1%E6%A0%BC%E5%B0%94%E6%94%B6%E8%B4%B9%E7%AB%99&mode=car&src=trip">点这里导航</a>]]></description>
      <Style><IconStyle><color>ff00838F</color><scale>1.0</scale><Icon><href>http://maps.google.com/mapfiles/kml/pushpin/ylw-pushpin.png</href></Icon></IconStyle></Style>
      <Point><coordinates>116.93,43.42,0</coordinates></Point>
    </Placemark>
    <Placemark>
      <name>22. 达达线</name>
      <description><![CDATA[10:00 · 彩虹公路 · 中国北疆风景大道<br/><br/>标签: attract<br/>坐标(GCJ-02): 116.98, 43.46<br/>高德导航: <a href="https://uri.amap.com/navigation?to=116.98,43.46,%E8%BE%BE%E8%BE%BE%E7%BA%BF&mode=car&src=trip">点这里导航</a>]]></description>
      <Style><IconStyle><color>ffFF6F00</color><scale>1.0</scale><Icon><href>http://maps.google.com/mapfiles/kml/pushpin/ylw-pushpin.png</href></Icon></IconStyle></Style>
      <Point><coordinates>116.98,43.46,0</coordinates></Point>
    </Placemark>
    <Placemark>
      <name>23. 巴彦查干苏木</name>
      <description><![CDATA[12:00 午餐 · 手把肉 · ⚠️ 后面无正经餐馆<br/><br/>标签: food<br/>坐标(GCJ-02): 117.0, 43.5<br/>高德导航: <a href="https://uri.amap.com/navigation?to=117.0,43.5,%E5%B7%B4%E5%BD%A6%E6%9F%A5%E5%B9%B2%E8%8B%8F%E6%9C%A8&mode=car&src=trip">点这里导航</a>]]></description>
      <Style><IconStyle><color>ffFFB300</color><scale>1.0</scale><Icon><href>http://maps.google.com/mapfiles/kml/pushpin/ylw-pushpin.png</href></Icon></IconStyle></Style>
      <Point><coordinates>117.0,43.5,0</coordinates></Point>
    </Placemark>
    <Placemark>
      <name>24. 阿斯哈图石林·南门</name>
      <description><![CDATA[13:00 · 石林驿站免费远眺 · 省160门票<br/><br/>标签: attract<br/>坐标(GCJ-02): 117.547, 43.35<br/>高德导航: <a href="https://uri.amap.com/navigation?to=117.547,43.35,%E9%98%BF%E6%96%AF%E5%93%88%E5%9B%BE%E7%9F%B3%E6%9E%97%C2%B7%E5%8D%97%E9%97%A8&mode=car&src=trip">点这里导航</a>]]></description>
      <Style><IconStyle><color>ffFF6F00</color><scale>1.0</scale><Icon><href>http://maps.google.com/mapfiles/kml/pushpin/ylw-pushpin.png</href></Icon></IconStyle></Style>
      <Point><coordinates>117.547,43.35,0</coordinates></Point>
    </Placemark>
    <Placemark>
      <name>25. 黄岗梁森林旅游区</name>
      <description><![CDATA[15:00 · 山顶观景台 · 导航设森林旅游区<br/><br/>标签: attract<br/>坐标(GCJ-02): 117.68, 43.14<br/>高德导航: <a href="https://uri.amap.com/navigation?to=117.68,43.14,%E9%BB%84%E5%B2%97%E6%A2%81%E6%A3%AE%E6%9E%97%E6%97%85%E6%B8%B8%E5%8C%BA&mode=car&src=trip">点这里导航</a>]]></description>
      <Style><IconStyle><color>ffFF6F00</color><scale>1.0</scale><Icon><href>http://maps.google.com/mapfiles/kml/pushpin/ylw-pushpin.png</href></Icon></IconStyle></Style>
      <Point><coordinates>117.68,43.14,0</coordinates></Point>
    </Placemark>
    <Placemark>
      <name>26. 黄岗梁·盘山公路</name>
      <description><![CDATA[16:30 · 半山腰 · 绿+雾+云海<br/><br/>标签: attract<br/>坐标(GCJ-02): 117.71, 43.09<br/>高德导航: <a href="https://uri.amap.com/navigation?to=117.71,43.09,%E9%BB%84%E5%B2%97%E6%A2%81%C2%B7%E7%9B%98%E5%B1%B1%E5%85%AC%E8%B7%AF&mode=car&src=trip">点这里导航</a>]]></description>
      <Style><IconStyle><color>ffFF6F00</color><scale>1.0</scale><Icon><href>http://maps.google.com/mapfiles/kml/pushpin/ylw-pushpin.png</href></Icon></IconStyle></Style>
      <Point><coordinates>117.71,43.09,0</coordinates></Point>
    </Placemark>
    <Placemark>
      <name>27. 热水塘镇</name>
      <description><![CDATA[17:30 · 温泉解乏（可选）<br/><br/>标签: attract<br/>坐标(GCJ-02): 117.79, 43.15<br/>高德导航: <a href="https://uri.amap.com/navigation?to=117.79,43.15,%E7%83%AD%E6%B0%B4%E5%A1%98%E9%95%87&mode=car&src=trip">点这里导航</a>]]></description>
      <Style><IconStyle><color>ffFF6F00</color><scale>1.0</scale><Icon><href>http://maps.google.com/mapfiles/kml/pushpin/ylw-pushpin.png</href></Icon></IconStyle></Style>
      <Point><coordinates>117.79,43.15,0</coordinates></Point>
    </Placemark>
    <Placemark>
      <name>28. 草原牧歌蒙餐</name>
      <description><![CDATA[19:00 晚餐 · 烤羊腿+莜面<br/><br/>标签: food<br/>坐标(GCJ-02): 117.55, 43.26<br/>高德导航: <a href="https://uri.amap.com/navigation?to=117.55,43.26,%E8%8D%89%E5%8E%9F%E7%89%A7%E6%AD%8C%E8%92%99%E9%A4%90&mode=car&src=trip">点这里导航</a>]]></description>
      <Style><IconStyle><color>ffFFB300</color><scale>1.0</scale><Icon><href>http://maps.google.com/mapfiles/kml/pushpin/ylw-pushpin.png</href></Icon></IconStyle></Style>
      <Point><coordinates>117.55,43.26,0</coordinates></Point>
    </Placemark>
    <Placemark>
      <name>29. 经棚镇·星程酒店</name>
      <description><![CDATA[入住 19:30 · 连锁稳定<br/><br/>标签: hotel<br/>坐标(GCJ-02): 117.55, 43.26<br/>高德导航: <a href="https://uri.amap.com/navigation?to=117.55,43.26,%E7%BB%8F%E6%A3%9A%E9%95%87%C2%B7%E6%98%9F%E7%A8%8B%E9%85%92%E5%BA%97&mode=car&src=trip">点这里导航</a>]]></description>
      <Style><IconStyle><color>ff7B1FA2</color><scale>1.0</scale><Icon><href>http://maps.google.com/mapfiles/kml/pushpin/ylw-pushpin.png</href></Icon></IconStyle></Style>
      <Point><coordinates>117.55,43.26,0</coordinates></Point>
    </Placemark>
  </Folder>
  <Folder>
    <name>D4 克什克腾石阵 + 温泉 + 玉龙沙湖</name>
    <description>约 200km · 10h · 克什克腾深度</description>
    <Placemark>
      <name>D4 行程连线</name>
      <Style><LineStyle><color>ffAA248E</color><width>3</width></LineStyle></Style>
      <LineString><tessellate>1</tessellate><coordinates>117.09,42.55,0 117.547,43.35,0 117.55,43.26,0 117.79,43.15,0 119.0604,43.0484,0 117.55,43.26,0</coordinates></LineString>
    </Placemark>
    <Placemark>
      <name>30. 桦木沟国家森林公园</name>
      <description><![CDATA[8:00 · 白桦林+溪流+野蘑菇 · 人少90%<br/><br/>标签: attract<br/>坐标(GCJ-02): 117.09, 42.55<br/>高德导航: <a href="https://uri.amap.com/navigation?to=117.09,42.55,%E6%A1%A6%E6%9C%A8%E6%B2%9F%E5%9B%BD%E5%AE%B6%E6%A3%AE%E6%9E%97%E5%85%AC%E5%9B%AD&mode=car&src=trip">点这里导航</a>]]></description>
      <Style><IconStyle><color>ffFF6F00</color><scale>1.0</scale><Icon><href>http://maps.google.com/mapfiles/kml/pushpin/ylw-pushpin.png</href></Icon></IconStyle></Style>
      <Point><coordinates>117.09,42.55,0</coordinates></Point>
    </Placemark>
    <Placemark>
      <name>31. 克什克腾石阵（阿斯哈图石林）</name>
      <description><![CDATA[9:30 · 买票进 160/人 · 游玩2-3h<br/><br/>标签: attract<br/>坐标(GCJ-02): 117.547, 43.35<br/>高德导航: <a href="https://uri.amap.com/navigation?to=117.547,43.35,%E5%85%8B%E4%BB%80%E5%85%8B%E8%85%BE%E7%9F%B3%E9%98%B5%EF%BC%88%E9%98%BF%E6%96%AF%E5%93%88%E5%9B%BE%E7%9F%B3%E6%9E%97%EF%BC%89&mode=car&src=trip">点这里导航</a>]]></description>
      <Style><IconStyle><color>ffFF6F00</color><scale>1.0</scale><Icon><href>http://maps.google.com/mapfiles/kml/pushpin/ylw-pushpin.png</href></Icon></IconStyle></Style>
      <Point><coordinates>117.547,43.35,0</coordinates></Point>
    </Placemark>
    <Placemark>
      <name>32. 经棚镇·烤羊腿</name>
      <description><![CDATA[12:00 午餐 · 强烈推荐<br/><br/>标签: food<br/>坐标(GCJ-02): 117.55, 43.26<br/>高德导航: <a href="https://uri.amap.com/navigation?to=117.55,43.26,%E7%BB%8F%E6%A3%9A%E9%95%87%C2%B7%E7%83%A4%E7%BE%8A%E8%85%BF&mode=car&src=trip">点这里导航</a>]]></description>
      <Style><IconStyle><color>ffFFB300</color><scale>1.0</scale><Icon><href>http://maps.google.com/mapfiles/kml/pushpin/ylw-pushpin.png</href></Icon></IconStyle></Style>
      <Point><coordinates>117.55,43.26,0</coordinates></Point>
    </Placemark>
    <Placemark>
      <name>33. 热水塘温泉</name>
      <description><![CDATA[14:00 · 半日票 150-200/人<br/><br/>标签: attract<br/>坐标(GCJ-02): 117.79, 43.15<br/>高德导航: <a href="https://uri.amap.com/navigation?to=117.79,43.15,%E7%83%AD%E6%B0%B4%E5%A1%98%E6%B8%A9%E6%B3%89&mode=car&src=trip">点这里导航</a>]]></description>
      <Style><IconStyle><color>ffFF6F00</color><scale>1.0</scale><Icon><href>http://maps.google.com/mapfiles/kml/pushpin/ylw-pushpin.png</href></Icon></IconStyle></Style>
      <Point><coordinates>117.79,43.15,0</coordinates></Point>
    </Placemark>
    <Placemark>
      <name>34. 玉龙沙湖</name>
      <description><![CDATA[17:00 · 沙漠+湖泊+骆驼（可选）<br/><br/>标签: attract<br/>坐标(GCJ-02): 119.0604, 43.0484<br/>高德导航: <a href="https://uri.amap.com/navigation?to=119.0604,43.0484,%E7%8E%89%E9%BE%99%E6%B2%99%E6%B9%96&mode=car&src=trip">点这里导航</a>]]></description>
      <Style><IconStyle><color>ffFF6F00</color><scale>1.0</scale><Icon><href>http://maps.google.com/mapfiles/kml/pushpin/ylw-pushpin.png</href></Icon></IconStyle></Style>
      <Point><coordinates>119.0604,43.0484,0</coordinates></Point>
    </Placemark>
    <Placemark>
      <name>35. 经棚镇·夜宿</name>
      <description><![CDATA[20:00 返经棚镇 · 同D3<br/><br/>标签: hotel<br/>坐标(GCJ-02): 117.55, 43.26<br/>高德导航: <a href="https://uri.amap.com/navigation?to=117.55,43.26,%E7%BB%8F%E6%A3%9A%E9%95%87%C2%B7%E5%A4%9C%E5%AE%BF&mode=car&src=trip">点这里导航</a>]]></description>
      <Style><IconStyle><color>ff7B1FA2</color><scale>1.0</scale><Icon><href>http://maps.google.com/mapfiles/kml/pushpin/ylw-pushpin.png</href></Icon></IconStyle></Style>
      <Point><coordinates>117.55,43.26,0</coordinates></Point>
    </Placemark>
  </Folder>
  <Folder>
    <name>D5 达里湖 → 沽源草原天路东线 → 北京</name>
    <description>约 820km · 11-12h · 桦皮岭日落 · 返程</description>
    <Placemark>
      <name>D5 行程连线</name>
      <Style><LineStyle><color>ff631EE9</color><width>3</width></LineStyle></Style>
      <LineString><tessellate>1</tessellate><coordinates>116.71,43.5,0 116.71,43.45,0 116.09,43.93,0 115.28,41.89,0 115.68,41.67,0 115.55,41.35,0 115.44,41.05,0 115.35,40.95,0 116.548094,40.084943,0</coordinates></LineString>
    </Placemark>
    <Placemark>
      <name>36. 达里湖·北岸</name>
      <description><![CDATA[9:00 · 草原马尔代夫 · 茅草屋+帆船<br/><br/>标签: attract<br/>坐标(GCJ-02): 116.71, 43.5<br/>高德导航: <a href="https://uri.amap.com/navigation?to=116.71,43.5,%E8%BE%BE%E9%87%8C%E6%B9%96%C2%B7%E5%8C%97%E5%B2%B8&mode=car&src=trip">点这里导航</a>]]></description>
      <Style><IconStyle><color>ffFF6F00</color><scale>1.0</scale><Icon><href>http://maps.google.com/mapfiles/kml/pushpin/ylw-pushpin.png</href></Icon></IconStyle></Style>
      <Point><coordinates>116.71,43.5,0</coordinates></Point>
    </Placemark>
    <Placemark>
      <name>37. 达里湖·南岸</name>
      <description><![CDATA[10:30 · 火山地貌+盐碱滩 · 航拍最佳（可选）<br/><br/>标签: attract<br/>坐标(GCJ-02): 116.71, 43.45<br/>高德导航: <a href="https://uri.amap.com/navigation?to=116.71,43.45,%E8%BE%BE%E9%87%8C%E6%B9%96%C2%B7%E5%8D%97%E5%B2%B8&mode=car&src=trip">点这里导航</a>]]></description>
      <Style><IconStyle><color>ffFF6F00</color><scale>1.0</scale><Icon><href>http://maps.google.com/mapfiles/kml/pushpin/ylw-pushpin.png</href></Icon></IconStyle></Style>
      <Point><coordinates>116.71,43.45,0</coordinates></Point>
    </Placemark>
    <Placemark>
      <name>38. 锡林郭勒午餐</name>
      <description><![CDATA[13:00 · 额尔敦蒙餐/锡盟羊杂<br/><br/>标签: food<br/>坐标(GCJ-02): 116.09, 43.93<br/>高德导航: <a href="https://uri.amap.com/navigation?to=116.09,43.93,%E9%94%A1%E6%9E%97%E9%83%AD%E5%8B%92%E5%8D%88%E9%A4%90&mode=car&src=trip">点这里导航</a>]]></description>
      <Style><IconStyle><color>ffFFB300</color><scale>1.0</scale><Icon><href>http://maps.google.com/mapfiles/kml/pushpin/ylw-pushpin.png</href></Icon></IconStyle></Style>
      <Point><coordinates>116.09,43.93,0</coordinates></Point>
    </Placemark>
    <Placemark>
      <name>39. 太仆寺旗</name>
      <description><![CDATA[15:00 · 分叉点：右转沽源方向（不去张北）<br/><br/>标签: stop<br/>坐标(GCJ-02): 115.28, 41.89<br/>高德导航: <a href="https://uri.amap.com/navigation?to=115.28,41.89,%E5%A4%AA%E4%BB%86%E5%AF%BA%E6%97%97&mode=car&src=trip">点这里导航</a>]]></description>
      <Style><IconStyle><color>ff00838F</color><scale>1.0</scale><Icon><href>http://maps.google.com/mapfiles/kml/pushpin/ylw-pushpin.png</href></Icon></IconStyle></Style>
      <Point><coordinates>115.28,41.89,0</coordinates></Point>
    </Placemark>
    <Placemark>
      <name>40. 沽源县</name>
      <description><![CDATA[16:00 · 滦河神韵/五花草甸 · 进天路前补给<br/><br/>标签: food<br/>坐标(GCJ-02): 115.68, 41.67<br/>高德导航: <a href="https://uri.amap.com/navigation?to=115.68,41.67,%E6%B2%BD%E6%BA%90%E5%8E%BF&mode=car&src=trip">点这里导航</a>]]></description>
      <Style><IconStyle><color>ffFFB300</color><scale>1.0</scale><Icon><href>http://maps.google.com/mapfiles/kml/pushpin/ylw-pushpin.png</href></Icon></IconStyle></Style>
      <Point><coordinates>115.68,41.67,0</coordinates></Point>
    </Placemark>
    <Placemark>
      <name>41. 草原天路东线</name>
      <description><![CDATA[16:30 · 沽源→桦皮岭 95km · 风车群+林海<br/><br/>标签: attract<br/>坐标(GCJ-02): 115.55, 41.35<br/>高德导航: <a href="https://uri.amap.com/navigation?to=115.55,41.35,%E8%8D%89%E5%8E%9F%E5%A4%A9%E8%B7%AF%E4%B8%9C%E7%BA%BF&mode=car&src=trip">点这里导航</a>]]></description>
      <Style><IconStyle><color>ffFF6F00</color><scale>1.0</scale><Icon><href>http://maps.google.com/mapfiles/kml/pushpin/ylw-pushpin.png</href></Icon></IconStyle></Style>
      <Point><coordinates>115.55,41.35,0</coordinates></Point>
    </Placemark>
    <Placemark>
      <name>42. 桦皮岭</name>
      <description><![CDATA[19:30 · 天路东入口 · 拍日落<br/><br/>标签: attract<br/>坐标(GCJ-02): 115.44, 41.05<br/>高德导航: <a href="https://uri.amap.com/navigation?to=115.44,41.05,%E6%A1%A6%E7%9A%AE%E5%B2%AD&mode=car&src=trip">点这里导航</a>]]></description>
      <Style><IconStyle><color>ffFF6F00</color><scale>1.0</scale><Icon><href>http://maps.google.com/mapfiles/kml/pushpin/ylw-pushpin.png</href></Icon></IconStyle></Style>
      <Point><coordinates>115.44,41.05,0</coordinates></Point>
    </Placemark>
    <Placemark>
      <name>43. 京礼高速</name>
      <description><![CDATA[20:00 · 崇礼方向 · 全程高速<br/><br/>标签: service<br/>坐标(GCJ-02): 115.35, 40.95<br/>高德导航: <a href="https://uri.amap.com/navigation?to=115.35,40.95,%E4%BA%AC%E7%A4%BC%E9%AB%98%E9%80%9F&mode=car&src=trip">点这里导航</a>]]></description>
      <Style><IconStyle><color>ff1976D2</color><scale>1.0</scale><Icon><href>http://maps.google.com/mapfiles/kml/pushpin/ylw-pushpin.png</href></Icon></IconStyle></Style>
      <Point><coordinates>115.35,40.95,0</coordinates></Point>
    </Placemark>
    <Placemark>
      <name>44. 枫泉花园（终点）</name>
      <description><![CDATA[22:30 抵京<br/><br/>标签: end<br/>坐标(GCJ-02): 116.548094, 40.084943<br/>高德导航: <a href="https://uri.amap.com/navigation?to=116.548094,40.084943,%E6%9E%AB%E6%B3%89%E8%8A%B1%E5%9B%AD%EF%BC%88%E7%BB%88%E7%82%B9%EF%BC%89&mode=car&src=trip">点这里导航</a>]]></description>
      <Style><IconStyle><color>ffD50000</color><scale>1.0</scale><Icon><href>http://maps.google.com/mapfiles/kml/pushpin/ylw-pushpin.png</href></Icon></IconStyle></Style>
      <Point><coordinates>116.548094,40.084943,0</coordinates></Point>
    </Placemark>
  </Folder>
</Document>
</kml>